{"fetched_at":"2026-03-30T06:02:59Z","count":15439,"tles":[{"name":"STARLINK-31744","line1":"1 59494U 24071L   26087.76050271  .00003538  00000+0  13801-3 0  9990","line2":"2 59494  43.0004 239.7078 0001288 269.2354  90.8350 15.27584079111039","category":"Starlink"}]}