{
  "norad_id": 59494,
  "name": "STARLINK-31744",
  "history": [
    {
      "epoch": "2026-03-28T18:15:07.434144",
      "apogee_km": 483.9206012694285,
      "perigee_km": 482.15316287740734,
      "latitude_deg": -39.46720992926216,
      "longitude_deg": -157.59173984010704,
      "semi_major_axis_km": 6861.173882073418,
      "eccentricity": 0.0001288,
      "inclination_deg": 43.0004,
      "raan_deg": 239.7078,
      "arg_perigee_deg": 269.2354,
      "mean_anomaly_deg": 90.835,
      "mean_motion_rev_day": 15.27584079
    }
  ]
}